BEIDOU-3 M17 (C36)      
1 43706U 18093A   26074.31449685 -.00000009  00000+0  00000+0 0  9998
2 43706  54.1706 185.4812 0007370 295.0478  45.7962  1.86228448 49780
BEIDOU-3 M18 (C37)      
1 43707U 18093B   26074.20538630 -.00000010  00000+0  00000+0 0  9998
2 43707  54.1719 185.4768 0006056 338.4916  21.4667  1.86226692 49786
BEIDOU-3 IGSO-1 (C38)   
1 44204U 19023A   26074.30491153 -.00000187  00000+0  00000+0 0  9999
2 44204  58.5692  38.6155 0025532 236.0551 126.9088  1.00267829  6272
BEIDOU-2 G8 (C01)       
1 44231U 19027A   26074.31028488 -.00000247  00000+0  00000+0 0  9998
2 44231   1.4187  74.2596 0011482 274.9606  79.9012  1.00273503 25130
BEIDOU-3 IGSO-2 (C39)   
1 44337U 19035A   26057.68879618 -.00000176  00000+0  00000+0 0  9995
2 44337  55.2338 159.8353 0038734 206.4752 153.7223  1.00247364 24561
BEIDOU-3 M24 (C46)      
1 44542U 19061A   26073.20132124 -.00000013  00000+0  00000+0 0  9992
2 44542  54.3984 185.9306 0008488  19.2225 340.7928  1.86229100 44027
BEIDOU-3 M23 (C45)      
1 44543U 19061B   26073.45188475 -.00000012  00000+0  00000+0 0  9999
2 44543  54.3970 185.8909 0004923  10.3958  69.7972  1.86227431 44039
BEIDOU-3 IGSO-3 (C40)   
1 44709U 19073A   26069.98346678 -.00000143  00000+0  00000+0 0  9995
2 44709  54.9673 281.9576 0040728 188.7089 171.2538  1.00267242 23477
BEIDOU-3 M22 (C44)      
1 44793U 19078A   26073.04051358 -.00000019  00000+0  00000+0 0  9995
2 44793  54.0216 303.1765 0007465  38.1970 321.9120  1.86232320 42878
BEIDOU-3 M21 (C43)      
1 44794U 19078B   26073.71723725 -.00000016  00000+0  00000+0 0  9991
2 44794  53.9944 303.1159 0005495  33.8306 326.2620  1.86228018 42892
BEIDOU-3 M19 (C41)      
1 44864U 19090A   26074.09542942  .00000021  00000+0  00000+0 0  9990
2 44864  56.4771  65.8991 0020404 291.9331 158.2804  1.86231813 42483
BEIDOU-3 M20 (C42)      
1 44865U 19090B   26073.30245928  .00000019  00000+0  00000+0 0  9995
2 44865  56.4780  65.9600 0017869 303.3279  64.8469  1.86231612 42455
BEIDOU-3 G2 (C60)       
1 45344U 20017A   26074.15480422 -.00000139  00000+0  00000+0 0  9997
2 45344   2.6744  45.7550 0002741 323.6454 299.1401  1.00272327 22310
BEIDOU-3 G3 (C61)       
1 45807U 20040A   26074.08954396 -.00000353  00000+0  00000+0 0  9993
2 45807   2.2145  67.1502 0004845 325.3989 282.9054  1.00270422 21125
BEIDOU-3 G4 (C62)       
1 56564U 23066A   26072.17398353 -.00000111  00000+0  00000+0 0  9991
2 56564   0.6336 312.1088 0002647 153.4351 287.9442  1.00272296 10433
BEIDOU-3 M28 (C50)      
1 58654U 23207A   26072.72076170  .00000012  00000+0  00000+0 0  9990
2 58654  55.6694  65.5222 0004977 305.9000  54.0758  1.86229773 15067
BEIDOU-3 M26 (C48)      
1 58655U 23207B   26073.59215816  .00000016  00000+0  00000+0 0  9993
2 58655  55.6721  65.4789 0005713 291.4407  68.5207  1.86229709 15063
